MACSAT 2 (M 2)          
1 20608U 90043B   13058.86553631  .00000447  00000-0  62032-4 0  8908
2 20608  89.7492  38.4290 0094224 164.2717 235.9047 14.73056131222234
TUBSAT A                
1 21577U 91050D   13057.98513580  .00000103  00000-0  48328-4 0  5980
2 21577  98.6506  21.4452 0005720 349.2559  52.4199 14.38844267134428
S80/T                   
1 22078U 92052C   13058.22247466 -.00000042  00000-0  77349-4 0  2867
2 22078  66.0884   9.1807 0010309 333.5290 130.3115 12.86753542965564
HEALTHSAT 1             
1 22827U 93061E   13058.79306742  .00000124  00000-0  64466-4 0  3570
2 22827  98.6038   6.6769 0008542 206.9997 185.4179 14.30545025 13437
TUBSAT B                
1 22970U 94003B   13058.14834176  .00000113  00000-0  26201-3 0  1123
2 22970  82.5591 276.1624 0017328 110.3652  36.9958 13.16929750917795
CERISE                  
1 23606U 95033B   13058.16516124  .00000925  00000-0  10733-3 0   107
2 23606  98.3546 260.7957 0006842  58.5958 301.5925 14.88030850952480
UPM/LBSAT               
1 23607U 95033C   13058.43283631  .00000447  00000-0  72823-4 0  2214
2 23607  98.2200 180.9920 0004958 250.7115 178.6572 14.75891366948251
FAISAT 2V               
1 24954U 97052B   13057.98542168  .00000082  00000-0  64490-4 0  7159
2 24954  82.9244  23.9527 0038150 294.6383 129.0807 13.79767272776935
MUBLCOM                 
1 25736U 99026B   13058.10969334  .00000436  00000-0  13315-3 0  8506
2 25736  97.6731 249.9257 0005245 200.8139 159.2842 14.45863816725882
RUBIN-3 & SL-8 R/B      
1 27561U 02054C   13057.92731343  .00000217  00000-0  60746-4 0  8312
2 27561  98.0355 209.6655 0046937   5.4360 140.5141 14.54354516543784
APRIZESAT 2             
1 28366U 04025A   13058.44073508  .00000179  00000-0  71150-4 0  4220
2 28366  98.2597   5.3155 0109955  71.3598  75.9803 14.35945439454112
SAUDICOMSAT 1           
1 28369U 04025D   13058.13996622  .00000193  00000-0  59047-4 0  4823
2 28369  97.9868  47.6640 0034019 193.3908 233.7154 14.51183685458839
SAUDICOMSAT 2           
1 28370U 04025E   13057.97567206  .00000174  00000-0  59592-4 0  4776
2 28370  98.0925  31.6332 0057353 268.3396 123.3125 14.46264712457261
APRIZESAT 1             
1 28372U 04025G   13058.01056627  .00000095  00000-0  36164-4 0  4675
2 28372  98.0415  38.5756 0046178 230.7363 160.2437 14.48617721458028
NANOSAT-1               
1 28493U 04049B   13058.51989194  .00000374  00000-0  68892-4 0  4891
2 28493  98.3850  72.6572 0003437 312.5104 194.4683 14.71456535439780
SAUDICOMSAT 7           
1 31119U 07012C   13058.06615456  .00000232  00000-0  56498-4 0  7873
2 31119  97.8304  78.3361 0060642 335.1097  58.0026 14.60121001312566
SAUDICOMSAT 6           
1 31121U 07012E   13058.06867005  .00000281  00000-0  69844-4 0  7845
2 31121  97.8521  68.3587 0078307   7.8724  24.4269 14.56962318311908
SAUDICOMSAT 5           
1 31124U 07012H   13058.14036382  .00000216  00000-0  51643-4 0  7939
2 31124  97.8244  84.1700 0051821 318.6388 114.0531 14.61742637312913
SAUDICOMSAT 3           
1 31125U 07012J   13058.59664051  .00000221  00000-0  51141-4 0  8096
2 31125  97.8212  90.1929 0043773 302.0658  57.6296 14.63323592313315
SAUDICOMSAT 4           
1 31127U 07012L   13058.05337414  .00000254  00000-0  62371-4 0  7912
2 31127  97.8400  73.6040 0069150 350.8242  85.8248 14.58637522312249
APRIZESAT 4             
1 35684U 09041D   13057.91320068  .00000343  00000-0  55254-4 0  1262
2 35684  98.0602 334.5157 0050671 117.6377 303.0980 14.76986695193010
APRIZESAT 3             
1 35686U 09041F   13057.88438067  .00000589  00000-0  74035-4 0  1449
2 35686  98.1055 350.4341 0079144  81.0266 350.2612 14.83919876193879
AISSAT 1                
1 36797U 10035C   13058.79680746  .00000570  00000-0  78507-4 0  8515
2 36797  98.0392 142.7277 0013405  71.7168 288.5497 14.82070226142347
